{
  "type": "FeatureCollection",
  "features": [
    {
      "type": "Feature",
      "geometry": {
        "type": "Polygon",
        "coordinates": [
          [
            [
              -78.644,
              35.731
            ],
            [
              -78.632,
              35.731
            ],
            [
              -78.632,
              35.743
            ],
            [
              -78.644,
              35.743
            ],
            [
              -78.644,
              35.731
            ]
          ]
        ]
      },
      "properties": {
        "id": "sample-south",
        "name": "Sample South Raleigh",
        "population": 4500,
        "share_age_65_plus": 0.24,
        "poverty_rate": 0.58,
        "share_households_no_vehicle": 0.68,
        "centroid": [
          -78.638,
          35.737
        ],
        "aqi": 90,
        "air_risk": 0.45,
        "hourly": {
          "14": {
            "temperature_f": 88,
            "heat_risk": 0.3714,
            "burden": 0.4475
          },
          "15": {
            "temperature_f": 90,
            "heat_risk": 0.4286,
            "burden": 0.4675
          },
          "16": {
            "temperature_f": 92,
            "heat_risk": 0.4857,
            "burden": 0.4875
          },
          "17": {
            "temperature_f": 94,
            "heat_risk": 0.5429,
            "burden": 0.5075
          },
          "18": {
            "temperature_f": 96,
            "heat_risk": 0.6,
            "burden": 0.5275
          },
          "19": {
            "temperature_f": 94,
            "heat_risk": 0.5429,
            "burden": 0.5075
          },
          "20": {
            "temperature_f": 92,
            "heat_risk": 0.4857,
            "burden": 0.4875
          }
        }
      }
    },
    {
      "type": "Feature",
      "geometry": {
        "type": "Polygon",
        "coordinates": [
          [
            [
              -78.654,
              35.722
            ],
            [
              -78.642,
              35.722
            ],
            [
              -78.642,
              35.734
            ],
            [
              -78.654,
              35.734
            ],
            [
              -78.654,
              35.722
            ]
          ]
        ]
      },
      "properties": {
        "id": "sample-south-2",
        "name": "Sample South Raleigh West",
        "population": 3900,
        "share_age_65_plus": 0.24,
        "poverty_rate": 0.58,
        "share_households_no_vehicle": 0.68,
        "centroid": [
          -78.648,
          35.728
        ],
        "aqi": 90,
        "air_risk": 0.45,
        "hourly": {
          "14": {
            "temperature_f": 88,
            "heat_risk": 0.3714,
            "burden": 0.4475
          },
          "15": {
            "temperature_f": 90,
            "heat_risk": 0.4286,
            "burden": 0.4675
          },
          "16": {
            "temperature_f": 92,
            "heat_risk": 0.4857,
            "burden": 0.4875
          },
          "17": {
            "temperature_f": 94,
            "heat_risk": 0.5429,
            "burden": 0.5075
          },
          "18": {
            "temperature_f": 96,
            "heat_risk": 0.6,
            "burden": 0.5275
          },
          "19": {
            "temperature_f": 94,
            "heat_risk": 0.5429,
            "burden": 0.5075
          },
          "20": {
            "temperature_f": 92,
            "heat_risk": 0.4857,
            "burden": 0.4875
          }
        }
      }
    },
    {
      "type": "Feature",
      "geometry": {
        "type": "Polygon",
        "coordinates": [
          [
            [
              -78.588,
              35.756
            ],
            [
              -78.576,
              35.756
            ],
            [
              -78.576,
              35.768
            ],
            [
              -78.588,
              35.768
            ],
            [
              -78.588,
              35.756
            ]
          ]
        ]
      },
      "properties": {
        "id": "sample-southeast",
        "name": "Sample Southeast Raleigh",
        "population": 5100,
        "share_age_65_plus": 0.24,
        "poverty_rate": 0.58,
        "share_households_no_vehicle": 0.68,
        "centroid": [
          -78.582,
          35.762
        ],
        "aqi": 90,
        "air_risk": 0.45,
        "hourly": {
          "14": {
            "temperature_f": 88,
            "heat_risk": 0.3714,
            "burden": 0.4475
          },
          "15": {
            "temperature_f": 90,
            "heat_risk": 0.4286,
            "burden": 0.4675
          },
          "16": {
            "temperature_f": 92,
            "heat_risk": 0.4857,
            "burden": 0.4875
          },
          "17": {
            "temperature_f": 94,
            "heat_risk": 0.5429,
            "burden": 0.5075
          },
          "18": {
            "temperature_f": 96,
            "heat_risk": 0.6,
            "burden": 0.5275
          },
          "19": {
            "temperature_f": 94,
            "heat_risk": 0.5429,
            "burden": 0.5075
          },
          "20": {
            "temperature_f": 92,
            "heat_risk": 0.4857,
            "burden": 0.4875
          }
        }
      }
    },
    {
      "type": "Feature",
      "geometry": {
        "type": "Polygon",
        "coordinates": [
          [
            [
              -78.578,
              35.746
            ],
            [
              -78.566,
              35.746
            ],
            [
              -78.566,
              35.758
            ],
            [
              -78.578,
              35.758
            ],
            [
              -78.578,
              35.746
            ]
          ]
        ]
      },
      "properties": {
        "id": "sample-southeast-2",
        "name": "Sample Southeast Raleigh East",
        "population": 2900,
        "share_age_65_plus": 0.24,
        "poverty_rate": 0.58,
        "share_households_no_vehicle": 0.68,
        "centroid": [
          -78.572,
          35.752
        ],
        "aqi": 90,
        "air_risk": 0.45,
        "hourly": {
          "14": {
            "temperature_f": 88,
            "heat_risk": 0.3714,
            "burden": 0.4475
          },
          "15": {
            "temperature_f": 90,
            "heat_risk": 0.4286,
            "burden": 0.4675
          },
          "16": {
            "temperature_f": 92,
            "heat_risk": 0.4857,
            "burden": 0.4875
          },
          "17": {
            "temperature_f": 94,
            "heat_risk": 0.5429,
            "burden": 0.5075
          },
          "18": {
            "temperature_f": 96,
            "heat_risk": 0.6,
            "burden": 0.5275
          },
          "19": {
            "temperature_f": 94,
            "heat_risk": 0.5429,
            "burden": 0.5075
          },
          "20": {
            "temperature_f": 92,
            "heat_risk": 0.4857,
            "burden": 0.4875
          }
        }
      }
    },
    {
      "type": "Feature",
      "geometry": {
        "type": "Polygon",
        "coordinates": [
          [
            [
              -78.706,
              35.809
            ],
            [
              -78.694,
              35.809
            ],
            [
              -78.694,
              35.821
            ],
            [
              -78.706,
              35.821
            ],
            [
              -78.706,
              35.809
            ]
          ]
        ]
      },
      "properties": {
        "id": "sample-rex",
        "name": "Sample Rex",
        "population": 3600,
        "share_age_65_plus": 0.24,
        "poverty_rate": 0.58,
        "share_households_no_vehicle": 0.68,
        "centroid": [
          -78.7,
          35.815
        ],
        "aqi": 90,
        "air_risk": 0.45,
        "hourly": {
          "14": {
            "temperature_f": 88,
            "heat_risk": 0.3714,
            "burden": 0.4475
          },
          "15": {
            "temperature_f": 90,
            "heat_risk": 0.4286,
            "burden": 0.4675
          },
          "16": {
            "temperature_f": 92,
            "heat_risk": 0.4857,
            "burden": 0.4875
          },
          "17": {
            "temperature_f": 94,
            "heat_risk": 0.5429,
            "burden": 0.5075
          },
          "18": {
            "temperature_f": 96,
            "heat_risk": 0.6,
            "burden": 0.5275
          },
          "19": {
            "temperature_f": 94,
            "heat_risk": 0.5429,
            "burden": 0.5075
          },
          "20": {
            "temperature_f": 92,
            "heat_risk": 0.4857,
            "burden": 0.4875
          }
        }
      }
    }
  ]
}
